{
  "type": "FeatureCollection",
  "features": [
    {
      "type": "Feature",
      "properties": {
        "norad_id": 33682,
        "name": "FENGYUN 1C DEB",
        "group": "fengyun-1c-debris",
        "lat": 28.339084247363786,
        "lon": 27.23850127658573,
        "alt_km": 790.0467790575103,
        "timestamp": "2025-12-11T20:41:15.367732+00:00",
        "meta_object_name": "FENGYUN 1C DEB",
        "meta_object_id": "1999-025DFT",
        "meta_epoch": "2025-12-11T02:02:18.614688",
        "meta_mean_motion": 14.26660896,
        "meta_eccentricity": 0.00288154,
        "meta_inclination": 99.4208,
        "meta_ra_of_asc_node": 31.5402,
        "meta_arg_of_pericenter": 87.4538,
        "meta_mean_anomaly": 272.9938,
        "meta_ephemeris_type": 0,
        "meta_classification_type": "U",
        "meta_norad_cat_id": 33682,
        "meta_element_set_no": 999,
        "meta_rev_at_epoch": 91674,
        "meta_bstar": 0.0020918162,
        "meta_mean_motion_dot": 5.031e-05,
        "meta_mean_motion_ddot": 0,
        "tle_line1": "1 33682U 99025DFT 25345.08493767  .00005031  00000+0  20918-2 0  9990",
        "tle_line2": "2 33682  99.4208  31.5402 0028815  87.4538 272.9938 14.26660896916745"
      },
      "geometry": {
        "type": "Point",
        "coordinates": [
          27.23850127658573,
          28.339084247363786
        ]
      }
    },
    {
      "type": "Feature",
      "properties": {
        "norad_id": 33684,
        "name": "FENGYUN 1C DEB",
        "group": "fengyun-1c-debris",
        "lat": -43.9898034539932,
        "lon": -147.5234667666688,
        "alt_km": 750.4447927400997,
        "timestamp": "2025-12-11T20:41:15.367742+00:00",
        "meta_object_name": "FENGYUN 1C DEB",
        "meta_object_id": "1999-025DFV",
        "meta_epoch": "2025-12-11T14:45:47.579328",
        "meta_mean_motion": 14.73075985,
        "meta_eccentricity": 0.02876759,
        "meta_inclination": 99.0658,
        "meta_ra_of_asc_node": 41.0674,
        "meta_arg_of_pericenter": 344.0562,
        "meta_mean_anomaly": 15.1726,
        "meta_ephemeris_type": 0,
        "meta_classification_type": "U",
        "meta_norad_cat_id": 33684,
        "meta_element_set_no": 999,
        "meta_rev_at_epoch": 92972,
        "meta_bstar": 0.0012360269,
        "meta_mean_motion_dot": 0.00015434,
        "meta_mean_motion_ddot": 0,
        "tle_line1": "1 33684U 99025DFV 25345.61513402  .00015434  00000+0  12360-2 0  9990",
        "tle_line2": "2 33684  99.0658  41.0674 0287675 344.0562  15.1726 14.73075985929724"
      },
      "geometry": {
        "type": "Point",
        "coordinates": [
          -147.5234667666688,
          -43.9898034539932
        ]
      }
    },
    {
      "type": "Feature",
      "properties": {
        "norad_id": 33687,
        "name": "FENGYUN 1C DEB",
        "group": "fengyun-1c-debris",
        "lat": -52.122695602415995,
        "lon": 159.67418814168016,
        "alt_km": 538.9491545133333,
        "timestamp": "2025-12-11T20:41:15.367752+00:00",
        "meta_object_name": "FENGYUN 1C DEB",
        "meta_object_id": "1999-025DFY",
        "meta_epoch": "2025-12-10T18:21:11.232576",
        "meta_mean_motion": 15.18394694,
        "meta_eccentricity": 0.01162924,
        "meta_inclination": 98.9979,
        "meta_ra_of_asc_node": 350.1242,
        "meta_arg_of_pericenter": 343.0209,
        "meta_mean_anomaly": 16.7142,
        "meta_ephemeris_type": 0,
        "meta_classification_type": "U",
        "meta_norad_cat_id": 33687,
        "meta_element_set_no": 999,
        "meta_rev_at_epoch": 71478,
        "meta_bstar": 0.0024359908,
        "meta_mean_motion_dot": 0.0006019,
        "meta_mean_motion_ddot": 0,
        "tle_line1": "1 33687U 99025DFY 25344.76471334  .00060190  00000+0  24360-2 0  9997",
        "tle_line2": "2 33687  98.9979 350.1242 0116292 343.0209  16.7142 15.18394694714787"
      },
      "geometry": {
        "type": "Point",
        "coordinates": [
          159.67418814168016,
          -52.122695602415995
        ]
      }
    },
    {
      "type": "Feature",
      "properties": {
        "norad_id": 33688,
        "name": "FENGYUN 1C DEB",
        "group": "fengyun-1c-debris",
        "lat": -69.34090513612772,
        "lon": -118.75555263930642,
        "alt_km": 710.508142940278,
        "timestamp": "2025-12-11T20:41:15.367762+00:00",
        "meta_object_name": "FENGYUN 1C DEB",
        "meta_object_id": "1999-025DFZ",
        "meta_epoch": "2025-12-07T05:52:51.431808",
        "meta_mean_motion": 14.45429653,
        "meta_eccentricity": 0.00533017,
        "meta_inclination": 99.3511,
        "meta_ra_of_asc_node": 82.0765,
        "meta_arg_of_pericenter": 278.5821,
        "meta_mean_anomaly": 80.9331,
        "meta_ephemeris_type": 0,
        "meta_classification_type": "U",
        "meta_norad_cat_id": 33688,
        "meta_element_set_no": 999,
        "meta_rev_at_epoch": 91402,
        "meta_bstar": 0.0043358113,
        "meta_mean_motion_dot": 0.00015514,
        "meta_mean_motion_ddot": 0,
        "tle_line1": "1 33688U 99025DFZ 25341.24503972  .00015514  00000+0  43358-2 0  9990",
        "tle_line2": "2 33688  99.3511  82.0765 0053301 278.5821  80.9331 14.45429653914024"
      },
      "geometry": {
        "type": "Point",
        "coordinates": [
          -118.75555263930642,
          -69.34090513612772
        ]
      }
    },
    {
      "type": "Feature",
      "properties": {
        "norad_id": 33689,
        "name": "FENGYUN 1C DEB",
        "group": "fengyun-1c-debris",
        "lat": -68.95673483959287,
        "lon": 19.065118668211237,
        "alt_km": 772.7790562245928,
        "timestamp": "2025-12-11T20:41:15.367772+00:00",
        "meta_object_name": "FENGYUN 1C DEB",
        "meta_object_id": "1999-025DGA",
        "meta_epoch": "2025-12-07T05:58:19.079616",
        "meta_mean_motion": 14.45083851,
        "meta_eccentricity": 0.00480135,
        "meta_inclination": 99.5648,
        "meta_ra_of_asc_node": 347.8823,
        "meta_arg_of_pericenter": 167.5369,
        "meta_mean_anomaly": 254.9476,
        "meta_ephemeris_type": 0,
        "meta_classification_type": "U",
        "meta_norad_cat_id": 33689,
        "meta_element_set_no": 999,
        "meta_rev_at_epoch": 69451,
        "meta_bstar": 0.0017194976,
        "meta_mean_motion_dot": 6.046e-05,
        "meta_mean_motion_ddot": 0,
        "tle_line1": "1 33689U 99025DGA 25341.24883194  .00006046  00000+0  17195-2 0  9998",
        "tle_line2": "2 33689  99.5648 347.8823 0048013 167.5369 254.9476 14.45083851694511"
      },
      "geometry": {
        "type": "Point",
        "coordinates": [
          19.065118668211237,
          -68.95673483959287
        ]
      }
    },
    {
      "type": "Feature",
      "properties": {
        "norad_id": 33690,
        "name": "FENGYUN 1C DEB",
        "group": "fengyun-1c-debris",
        "lat": -80.69874564136865,
        "lon": -163.5188847963258,
        "alt_km": 746.3436555196959,
        "timestamp": "2025-12-11T20:41:15.367782+00:00",
        "meta_object_name": "FENGYUN 1C DEB",
        "meta_object_id": "1999-025DGB",
        "meta_epoch": "2025-12-10T05:24:34.585056",
        "meta_mean_motion": 14.51382006,
        "meta_eccentricity": 0.0030584,
        "meta_inclination": 98.6124,
        "meta_ra_of_asc_node": 82.5299,
        "meta_arg_of_pericenter": 57.6431,
        "meta_mean_anomaly": 302.7717,
        "meta_ephemeris_type": 0,
        "meta_classification_type": "U",
        "meta_norad_cat_id": 33690,
        "meta_element_set_no": 999,
        "meta_rev_at_epoch": 93183,
        "meta_bstar": 0.0033288,
        "meta_mean_motion_dot": 0.00013329,
        "meta_mean_motion_ddot": 0,
        "tle_line1": "1 33690U 99025DGB 25344.22540029  .00013329  00000+0  33288-2 0  9991",
        "tle_line2": "2 33690  98.6124  82.5299 0030584  57.6431 302.7717 14.51382006931835"
      },
      "geometry": {
        "type": "Point",
        "coordinates": [
          -163.5188847963258,
          -80.69874564136865
        ]
      }
    },
    {
      "type": "Feature",
      "properties": {
        "norad_id": 33693,
        "name": "FENGYUN 1C DEB",
        "group": "fengyun-1c-debris",
        "lat": 23.283424826520037,
        "lon": 159.61425283424677,
        "alt_km": 839.6424110442404,
        "timestamp": "2025-12-11T20:41:15.367792+00:00",
        "meta_object_name": "FENGYUN 1C DEB",
        "meta_object_id": "1999-025DGE",
        "meta_epoch": "2025-12-10T23:33:55.151712",
        "meta_mean_motion": 13.71304455,
        "meta_eccentricity": 0.02262712,
        "meta_inclination": 99.2154,
        "meta_ra_of_asc_node": 162.7749,
        "meta_arg_of_pericenter": 3.4622,
        "meta_mean_anomaly": 356.803,
        "meta_ephemeris_type": 0,
        "meta_classification_type": "U",
        "meta_norad_cat_id": 33693,
        "meta_element_set_no": 999,
        "meta_rev_at_epoch": 88207,
        "meta_bstar": 0.002137077,
        "meta_mean_motion_dot": 2.258e-05,
        "meta_mean_motion_ddot": 0,
        "tle_line1": "1 33693U 99025DGE 25344.98188833  .00002258  00000+0  21371-2 0  9997",
        "tle_line2": "2 33693  99.2154 162.7749 0226271   3.4622 356.8030 13.71304455882072"
      },
      "geometry": {
        "type": "Point",
        "coordinates": [
          159.61425283424677,
          23.283424826520037
        ]
      }
    }
  ]
}